STARLINK-2374_new
1 17913C 21021BF  21326.12015557  .00001045  00000-0  70049-4 0  3268
2 17913  53.0554 123.2063 0001477  88.2746 173.6644 15.06385683    16
STARLINK-2374_old
1 27913C 21021BF  21325.08250085  .00002404  00000-0  16101-3 0  3256
2 27913  53.0553 127.8642 0001658  86.4230 305.1234 15.06406414    10
